     3.00           N                   E                   RINEX VERSION / TYPE
BRD_USR             ESA                 20190112 041724  UTCPGM / RUN BY / DATE
 GAL   4.0250E+01  4.2969E-02 -8.8501E-04  0.0000E+00       IONOSPHERIC CORR
GAUT  2.7939677238E-09-1.776356839E-15 518400 2035 GSTB   0 TIME SYSTEM CORR
GPGA  2.1827872843E-09 1.199040867E-14 518400 2035 GSTB   0 TIME SYSTEM CORR
                                                            END OF HEADER
E01 2019 01 12 01 40 00-5.188590148464E-04-8.157030606526E-12 0.000000000000E+00
     1.060000000000E+02-5.906250000000E+00 2.924050369863E-09-7.440015287072E-02
    -2.607703208923E-07 9.840005077422E-05 7.076188921928E-06 5.440613168716E+03
     5.244000000000E+05 5.029141902924E-08-2.948955112297E+00 3.166496753693E-08
     9.901546731280E-01 2.037187500000E+02-6.543099320293E-01-5.492371636467E-09
    -3.560862609935E-10 2.580000000000E+02 2.035000000000E+03 0.000000000000E+00
     3.120000000000E+00 0.000000000000E+00-4.423782229424E-09 0.000000000000E+00
     5.256000000000E+05 0.000000000000E+00 0.000000000000E+00 0.000000000000E+00
E02 2019 01 12 01 40 00 4.296051338315E-05 1.634248292248E-12 0.000000000000E+00
     1.060000000000E+02-6.343750000000E+00 2.804045371173E-09 2.584899435551E+00
    -1.825392246246E-07 2.656070282683E-04 7.780268788338E-06 5.440618600845E+03
     5.244000000000E+05-5.587935447693E-08-2.948988499014E+00 2.421438694000E-08
     9.901628098783E-01 1.886250000000E+02-1.737272770327E-01-5.396296205969E-09
    -3.507288949806E-10 2.580000000000E+02 2.035000000000E+03 0.000000000000E+00
     3.120000000000E+00 0.000000000000E+00-6.286427378654E-09 0.000000000000E+00
     5.256000000000E+05 0.000000000000E+00 0.000000000000E+00 0.000000000000E+00
E03 2019 01 12 01 30 00-1.211694325320E-04-4.234834705130E-12 0.000000000000E+00
     1.050000000000E+02-4.500000000000E+00 3.094057451341E-09-2.476106118136E+00
    -2.030283212662E-07 2.588676288724E-04 1.134909689426E-05 5.440622844696E+03
     5.238000000000E+05-6.332993507385E-08 1.241662078701E+00-1.490116119385E-08
     9.524428277182E-01 9.328125000000E+01 6.206160218455E-01-5.478799642568E-09
     2.171519023912E-10 2.580000000000E+02 2.035000000000E+03 0.000000000000E+00
     3.120000000000E+00 0.000000000000E+00-1.862645149231E-09 0.000000000000E+00
     5.256000000000E+05 0.000000000000E+00 0.000000000000E+00 0.000000000000E+00
E04 2019 01 12 00 50 00-1.981629757211E-04-7.872813512222E-12 0.000000000000E+00
     1.010000000000E+02-1.756250000000E+01 3.052269996440E-09-1.895021908343E+00
    -7.376074790955E-07 7.131102029234E-05 1.077912747860E-05 5.440621717453E+03
     5.214000000000E+05 2.793967723846E-08 1.241725023677E+00 1.862645149231E-08
     9.524855522407E-01 1.058750000000E+02 2.102711737058E+00-5.475942380694E-09
     2.928693420408E-10 2.580000000000E+02 2.035000000000E+03 0.000000000000E+00
     3.120000000000E+00 0.000000000000E+00-7.916241884232E-09 0.000000000000E+00
     5.256000000000E+05 0.000000000000E+00 0.000000000000E+00 0.000000000000E+00
E05 2019 01 12 01 40 00 1.266079489142E-04-6.522782314278E-12 0.000000000000E+00
     1.060000000000E+02-3.343750000000E+00 3.162274578572E-09-2.614462653172E+00
    -1.844018697739E-07 1.332599204034E-04 1.083128154278E-05 5.440621324539E+03
     5.244000000000E+05 1.676380634308E-08 1.241642506320E+00-1.676380634308E-08
     9.524558637812E-01 1.037187500000E+02 1.620851313820E+00-5.530944671761E-09
     2.125088518467E-10 2.580000000000E+02 2.035000000000E+03 0.000000000000E+00
     3.120000000000E+00 0.000000000000E+00-1.164153218269E-09 0.000000000000E+00
     5.256000000000E+05 0.000000000000E+00 0.000000000000E+00 0.000000000000E+00
E07 2019 01 12 01 40 00-1.109043369070E-04-7.077005648171E-12 0.000000000000E+00
     1.060000000000E+02-2.165625000000E+01 3.138345010381E-09 2.950938916988E+00
    -9.350478649139E-07 1.376745058224E-04 1.244246959686E-05 5.440619852066E+03
     5.244000000000E+05 2.607703208923E-08 1.241660043782E+00 1.862645149231E-08
     9.524863626973E-01 6.753125000000E+01-1.927086478887E-02-5.541302246052E-09
     2.407243128482E-10 2.580000000000E+02 2.035000000000E+03 0.000000000000E+00
     3.120000000000E+00 0.000000000000E+00 2.328306436539E-10 0.000000000000E+00
     5.256000000000E+05 0.000000000000E+00 0.000000000000E+00 0.000000000000E+00
E08 2019 01 12 01 30 00 6.425198167562E-03-7.489120434911E-12 0.000000000000E+00
     1.050000000000E+02-4.718750000000E+00 2.922978896661E-09-3.094644911879E+00
    -2.179294824600E-07 2.124968450516E-04 1.208297908306E-05 5.440625040054E+03
     5.238000000000E+05 5.587935447693E-09 1.233049038790E+00 5.960464477539E-08
     9.584299823415E-01 7.881250000000E+01 4.553526036523E-01-5.445941131022E-09
     2.514390448740E-10 2.580000000000E+02 2.035000000000E+03 0.000000000000E+00
     3.120000000000E+00 0.000000000000E+00-8.614733815193E-09 0.000000000000E+00
     5.256000000000E+05 0.000000000000E+00 0.000000000000E+00 0.000000000000E+00
E09 2019 01 12 01 00 00 6.560957641341E-03-1.128341864387E-11 0.000000000000E+00
     1.020000000000E+02-1.134375000000E+01 3.005839490994E-09-5.905831899661E-01
    -4.488974809647E-07 2.420255914330E-04 1.047551631927E-05 5.440624744415E+03
     5.220000000000E+05 7.450580596924E-09 1.233055738955E+00-1.117587089539E-08
     9.584590710046E-01 1.135625000000E+02 8.306402333284E-02-5.485942797252E-09
     2.667968274445E-10 2.580000000000E+02 2.035000000000E+03 0.000000000000E+00
     3.120000000000E+00 0.000000000000E+00-3.259629011154E-09 0.000000000000E+00
     5.256000000000E+05 0.000000000000E+00 0.000000000000E+00 0.000000000000E+00
E11 2019 01 12 01 40 00 5.719604960177E-03 8.668621376273E-13 0.000000000000E+00
     1.060000000000E+02 1.653125000000E+01 2.981909922803E-09 2.238529231476E+00
     7.841736078262E-07 2.697738818824E-04 3.097578883171E-06 5.440605529785E+03
     5.244000000000E+05-4.842877388000E-08-8.636523154313E-01 7.264316082001E-08
     9.819163947934E-01 2.831875000000E+02-3.527811733805E-01-5.753453940165E-09
     1.417916204758E-10 2.580000000000E+02 2.035000000000E+03 0.000000000000E+00
     3.120000000000E+00 0.000000000000E+00-1.839362084866E-08 0.000000000000E+00
     5.256000000000E+05 0.000000000000E+00 0.000000000000E+00 0.000000000000E+00
E12 2019 01 12 01 00 00 5.922448006459E-03 8.435563358944E-11 0.000000000000E+00
     1.020000000000E+02 2.090625000000E+01 2.940836783371E-09-3.031890529039E+00
     9.033828973770E-07 3.956744913012E-04 3.218650817871E-06 5.440603809357E+03
     5.220000000000E+05-5.587935447693E-08-8.636537417764E-01-3.725290298462E-09
     9.819306406897E-01 2.813437500000E+02-8.594602680842E-01-5.700594595504E-09
     1.182192100189E-10 2.580000000000E+02 2.035000000000E+03 0.000000000000E+00
     3.120000000000E+00 0.000000000000E+00-1.583248376846E-08 0.000000000000E+00
     5.256000000000E+05 0.000000000000E+00 0.000000000000E+00 0.000000000000E+00
E13 2019 01 12 00 50 00 3.816219395958E-04 4.263256414561E-13 0.000000000000E+00
     1.010000000000E+02 3.081250000000E+01 2.999410651779E-09-1.084488089853E-01
     1.486390829086E-06 3.431546501815E-04 3.645196557045E-06 5.440596036911E+03
     5.214000000000E+05 1.676380634308E-08-8.689238090673E-01-1.490116119385E-08
     9.851576536449E-01 2.748437500000E+02-1.512817271369E+00-5.769883195938E-09
     1.725071856167E-10 2.580000000000E+02 2.035000000000E+03 0.000000000000E+00
     3.120000000000E+00 5.600000000000E+01-4.423782229424E-09 0.000000000000E+00
     5.256000000000E+05 0.000000000000E+00 0.000000000000E+00 0.000000000000E+00
E14 2019 01 12 01 40 00 6.461240525823E-03-5.584865903074E-12 0.000000000000E+00
     1.060000000000E+02 3.259375000000E+01 4.414469594664E-09 1.650946334347E+00
     3.427267074585E-07 1.662697743159E-01 3.468245267868E-06 5.289372016907E+03
     5.244000000000E+05 1.881271600723E-06-1.465435038600E+00-1.449137926102E-06
     8.826311291065E-01 2.133437500000E+02 1.456911731159E+00-5.632377468272E-09
    -2.292952653539E-10 2.580000000000E+02 2.035000000000E+03 0.000000000000E+00
     3.120000000000E+00 5.600000000000E+01 3.306195139885E-08 0.000000000000E+00
     5.256000000000E+05 0.000000000000E+00 0.000000000000E+00 0.000000000000E+00
E15 2019 01 12 01 30 00 9.232116863132E-04-9.947598300641E-13 0.000000000000E+00
     1.050000000000E+02 2.521875000000E+01 2.983695711474E-09 1.059920727233E+00
     1.082196831703E-06 3.899501170963E-04 3.196299076080E-06 5.440595079422E+03
     5.238000000000E+05 2.607703208923E-08-8.689488498360E-01-2.235174179077E-08
     9.851163993551E-01 2.844375000000E+02-1.601374066400E+00-5.770240353672E-09
     1.296482575132E-10 2.580000000000E+02 2.035000000000E+03 0.000000000000E+00
     3.120000000000E+00 5.600000000000E+01 1.396983861923E-09 0.000000000000E+00
     5.256000000000E+05 0.000000000000E+00 0.000000000000E+00 0.000000000000E+00
E18 2019 01 12 01 40 00 5.613030632958E-03-2.843592028512E-11 0.000000000000E+00
     1.060000000000E+02 9.756250000000E+01 2.500104139373E-09-1.521009394638E+00
     6.850808858871E-06 1.663135441486E-01 3.347173333168E-06 5.289387928009E+03
     5.244000000000E+05 5.193054676056E-06-1.448237670009E+00 2.138316631317E-06
     8.818403209433E-01 2.830937500000E+02 1.441391024682E+00-3.881233097509E-09
     6.785996949726E-12 2.580000000000E+02 2.035000000000E+03 0.000000000000E+00
     3.120000000000E+00 5.600000000000E+01 1.420266926289E-08 0.000000000000E+00
     5.256000000000E+05 0.000000000000E+00 0.000000000000E+00 0.000000000000E+00
